VICTUS HAZE PUMA        
1 69646U 26142A   26200.25832431  .00001791  00000+0  82930-4 0  9997
2 69646  97.4459  97.5147 0026471 252.2212 107.6135 15.21137439  4542
HOKUSHIN-1              
1 69648U 98067YH  26200.22309060  .00014688  00000+0  25435-3 0  9993
2 69648  51.6319 141.2443 0006208 344.8705  15.2098 15.51137061  4623
STARLINK-37656          
1 69649U 26143A   26200.09199608  .00013813  00000+0  25506-3 0  9998
2 69649  97.2859 244.0136 0000912 100.9866 259.1488 15.49204494  5484
STARLINK-37646          
1 69650U 26143B   26198.40359773 -.00159329  00000+0 -30305-2 0  9999
2 69650  97.2850 242.4838 0003494 139.4005 220.7507 15.48770998  5233
STARLINK-37749          
1 69651U 26143C   26200.02515428  .00025616  00000+0  47075-3 0  9995
2 69651  97.2843 244.1041 0001219  94.4380 265.7010 15.49211916  5486
STARLINK-37819          
1 69652U 26143D   26198.09895882  .00037410  00000+0  68551-3 0  9991
2 69652  97.2815 242.1313 0001683  91.4316 268.7128 15.49219289  5188
STARLINK-37729          
1 69653U 26143E   26200.25002315 -.02457206  00000+0 -25615-1 0  9990
2 69653  97.2852 244.8764 0001207  74.2323 287.8766 15.67793452  5615
STARLINK-37838          
1 69654U 26143F   26200.25002315 -.03173348  00000+0 -74472-1 0  9999
2 69654  97.2850 244.3719 0002270  90.9316 178.8222 15.45909973  5616
STARLINK-37884          
1 69655U 26143G   26200.25002315 -.00045562  00000+0 -12668-2 0  9993
2 69655  97.2845 244.2672 0001429  93.1609 274.2812 15.36975819  5611
STARLINK-37876          
1 69656U 26143H   26200.25002315 -.00051679  00000+0 -14375-2 0  9997
2 69656  97.2845 244.3413 0000958  88.3294 104.9599 15.36995555  5517
STARLINK-37784          
1 69657U 26143J   26200.10220558  .00029005  00000+0  53242-3 0  9996
2 69657  97.2804 244.1503 0000571  60.5764 299.5544 15.49221145  5428
STARLINK-37851          
1 69658U 26143K   26198.07193549  .00020222  00000+0  37230-3 0  9999
2 69658  97.2843 242.1702 0000622  94.0044 266.1279 15.49205906  5119
STARLINK-37229          
1 69659U 26143L   26200.25002315 -.01797407  00000+0 -59445-1 0  9993
2 69659  97.2839 244.3034 0001168 123.5008 324.8031 15.34679504  5550
STARLINK-37556          
1 69660U 26143M   26200.25002315 -.02609670  00000+0 -83078-1 0  9999
2 69660  97.3050 244.2755 0001220  77.6631 322.9843 15.36668427  5551
STARLINK-37867          
1 69661U 26143N   26200.25002315 -.00046347  00000+0 -14402-2 0  9990
2 69661  97.2848 244.3093 0001623  54.1081  64.7953 15.33485128  5519
STARLINK-37852          
1 69662U 26143P   26200.25002315 -.02765229  00000+0 -64542-1 0  9999
2 69662  97.2835 244.2944 0001985  64.3427  13.1454 15.46174561  5512
STARLINK-37554          
1 69663U 26143Q   26200.25002315 -.00047904  00000+0 -13313-2 0  9992
2 69663  97.2846 244.2988 0001429  98.1373 358.6485 15.37003309  5557
STARLINK-37830          
1 69664U 26143R   26200.25002315 -.00044887  00000+0 -12475-2 0  9998
2 69664  97.2840 244.2840 0001170  70.9306 341.9261 15.36985079  5500
STARLINK-37837          
1 69665U 26143S   26200.11535321  .00016108  00000+0  44705-3 0  9997
2 69665  97.2825 244.1348 0000572  75.1318 284.9990 15.36985958  5423
STARLINK-37943          
1 69666U 26143T   26200.25002315 -.02824964  00000+0 -67995-1 0  9990
2 69666  97.2845 244.3145 0001949  90.2077  27.2167 15.45376971  5515
STARLINK-37941          
1 69667U 26143U   26200.25002315 -.04244433  00000+0 -12150+0 0  9991
2 69667  97.2843 244.3319 0002845  58.5486 100.4228 15.40649641  5518
STARLINK-37930          
1 69668U 26143V   26198.08308824  .00029225  00000+0  53610-3 0  9997
2 69668  97.2839 242.1534 0001166 117.7877 242.3492 15.49238300  5116
STARLINK-37945          
1 69669U 26143W   26198.07018358  .00021140  00000+0  38917-3 0  9998
2 69669  97.2808 242.1687 0000806  71.0791 289.0547 15.49200166  5117
STARLINK-37948          
1 69670U 26143X   26200.12044434  .00025134  00000+0  46185-3 0  9997
2 69670  97.2840 244.1294 0001895 123.7371 236.4062 15.49217681  5421
STARLINK-37949          
1 69671U 26143Y   26200.09604700  .00025709  00000+0  47243-3 0  9996
2 69671  97.2817 244.1599 0001009 145.3850 214.7468 15.49213450  5422
STARLINK-37946          
1 69672U 26143Z   26200.08211527  .00030906  00000+0  56730-3 0  9993
2 69672  97.2835 244.1804 0001153 100.9098 259.2283 15.49209166  5421
TJS-26A                 
1 69674U 26144A   26200.28521499 -.00000354  00000+0  00000+0 0  9990
2 69674   6.9427 323.2330 0004082 349.6881 194.3820  1.00271652   260
CZ-7A R/B               
1 69675U 26144B   26199.85980513  .01290651  11116-5  14348-2 0  9997
2 69675  19.4371 313.2445 7030899 199.9898 105.5469  2.68196060   661
STARLINK-38005          
1 69677U 26145A   26200.11542359  .00158690  00000+0  10460-2 0  9994
2 69677  97.2845  47.1414 0001550  85.5707 274.5736 15.75170589  3797
STARLINK-38009          
1 69678U 26145B   26200.11366110  .00150844  00000+0  99482-3 0  9999
2 69678  97.2841  47.1445 0001990  78.8246 281.3243 15.75180082  3797
