OBJECT_NAME,OBJECT_ID,EPOCH,MEAN_MOTION,ECCENTRICITY,INCLINATION,RA_OF_ASC_NODE,ARG_OF_PERICENTER,MEAN_ANOMALY,EPHEMERIS_TYPE,CLASSIFICATION_TYPE,NORAD_CAT_ID,ELEMENT_SET_NO,REV_AT_EPOCH,BSTAR,MEAN_MOTION_DOT,MEAN_MOTION_DDOT
VICTUS HAZE PUMA,2026-142A,2026-07-19T06:11:59.220384,15.21137439,.0026471,97.4459,97.5147,252.2212,107.6135,0,U,69646,999,454,.82930199E-4,.1791E-4,0
HOKUSHIN-1,1998-067YH,2026-07-19T05:21:15.027840,15.51137061,.00062088,51.6319,141.2443,344.8705,15.2098,0,U,69648,999,462,.25435348E-3,.14688E-3,0
STARLINK-37656,2026-143A,2026-07-19T02:12:28.461312,15.49204494,.00009123,97.2859,244.0136,100.9866,259.1488,0,U,69649,999,548,.25506332E-3,.13813E-3,0
STARLINK-37646,2026-143B,2026-07-17T09:41:10.843872,15.48770998,.0003494,97.2850,242.4838,139.4005,220.7507,0,U,69650,999,523,-.30305E-2,-.159329E-2,0
STARLINK-37749,2026-143C,2026-07-19T00:36:13.329792,15.49211916,.00012193,97.2843,244.1041,94.4380,265.7010,0,U,69651,999,548,.47074806E-3,.25616E-3,0
STARLINK-37819,2026-143D,2026-07-17T02:22:30.042048,15.49219289,.00016833,97.2815,242.1313,91.4316,268.7128,0,U,69652,999,518,.68551182E-3,.3741E-3,0
STARLINK-37729,2026-143E,2026-07-19T06:00:02.000160,15.67793452,.00012076,97.2852,244.8764,74.2323,287.8766,0,U,69653,999,561,-.25614693E-1,-.2457206E-1,0
STARLINK-37838,2026-143F,2026-07-19T06:00:02.000160,15.45909973,.000227,97.2850,244.3719,90.9316,178.8222,0,U,69654,999,561,-.74472358E-1,-.3173348E-1,0
STARLINK-37884,2026-143G,2026-07-19T06:00:02.000160,15.36975819,.00014295,97.2845,244.2672,93.1609,274.2812,0,U,69655,999,561,-.12668004E-2,-.45562E-3,0
STARLINK-37876,2026-143H,2026-07-19T06:00:02.000160,15.36995555,.00009582,97.2845,244.3413,88.3294,104.9599,0,U,69656,999,551,-.14374563E-2,-.51679E-3,0
STARLINK-37784,2026-143J,2026-07-19T02:27:10.562112,15.49221145,.00005717,97.2804,244.1503,60.5764,299.5544,0,U,69657,999,542,.53241783E-3,.29005E-3,0
STARLINK-37851,2026-143K,2026-07-17T01:43:35.226336,15.49205906,.00006228,97.2843,242.1702,94.0044,266.1279,0,U,69658,999,511,.37230415E-3,.20222E-3,0
STARLINK-37229,2026-143L,2026-07-19T06:00:02.000160,15.34679504,.00011682,97.2839,244.3034,123.5008,324.8031,0,U,69659,999,555,-.59445382E-1,-.1797407E-1,0
STARLINK-37556,2026-143M,2026-07-19T06:00:02.000160,15.36668427,.00012202,97.3050,244.2755,77.6631,322.9843,0,U,69660,999,555,-.83078427E-1,-.260967E-1,0
STARLINK-37867,2026-143N,2026-07-19T06:00:02.000160,15.33485128,.00016234,97.2848,244.3093,54.1081,64.7953,0,U,69661,999,551,-.14402164E-2,-.46347E-3,0
STARLINK-37852,2026-143P,2026-07-19T06:00:02.000160,15.46174561,.00019851,97.2835,244.2944,64.3427,13.1454,0,U,69662,999,551,-.64542181E-1,-.2765229E-1,0
STARLINK-37554,2026-143Q,2026-07-19T06:00:02.000160,15.37003309,.0001429,97.2846,244.2988,98.1373,358.6485,0,U,69663,999,555,-.13312783E-2,-.47904E-3,0
STARLINK-37830,2026-143R,2026-07-19T06:00:02.000160,15.36985079,.00011704,97.2840,244.2840,70.9306,341.9261,0,U,69664,999,550,-.12475466E-2,-.44887E-3,0
STARLINK-37837,2026-143S,2026-07-19T02:46:06.517344,15.36985958,.00005727,97.2825,244.1348,75.1318,284.9990,0,U,69665,999,542,.44704564E-3,.16108E-3,0
STARLINK-37943,2026-143T,2026-07-19T06:00:02.000160,15.45376971,.00019497,97.2845,244.3145,90.2077,27.2167,0,U,69666,999,551,-.67995272E-1,-.2824964E-1,0
STARLINK-37941,2026-143U,2026-07-19T06:00:02.000160,15.40649641,.00028453,97.2843,244.3319,58.5486,100.4228,0,U,69667,999,551,-.12149794E+0,-.4244433E-1,0
STARLINK-37930,2026-143V,2026-07-17T01:59:38.823936,15.49238300,.00011666,97.2839,242.1534,117.7877,242.3492,0,U,69668,999,511,.53609935E-3,.29225E-3,0
STARLINK-37945,2026-143W,2026-07-17T01:41:03.861312,15.49200166,.00008062,97.2808,242.1687,71.0791,289.0547,0,U,69669,999,511,.38917037E-3,.2114E-3,0
STARLINK-37948,2026-143X,2026-07-19T02:53:26.390976,15.49217681,.0001895,97.2840,244.1294,123.7371,236.4062,0,U,69670,999,542,.46185067E-3,.25134E-3,0
STARLINK-37949,2026-143Y,2026-07-19T02:18:18.460800,15.49213450,.00010096,97.2817,244.1599,145.3850,214.7468,0,U,69671,999,542,.47242762E-3,.25709E-3,0
STARLINK-37946,2026-143Z,2026-07-19T01:58:14.759328,15.49209166,.00011532,97.2835,244.1804,100.9098,259.2283,0,U,69672,999,542,.56729547E-3,.30906E-3,0
TJS-26A,2026-144A,2026-07-19T06:50:42.575136,1.00271652,.00040823,6.9427,323.2330,349.6881,194.3820,0,U,69674,999,26,0,-.354E-5,0
CZ-7A R/B,2026-144B,2026-07-18T20:38:07.163232,2.68196060,.70308996,19.4371,313.2445,199.9898,105.5469,0,U,69675,999,66,.14348344E-2,.1290651E-1,.1111629E-5
STARLINK-38005,2026-145A,2026-07-19T02:46:12.598176,15.75170589,.00015506,97.2845,47.1414,85.5707,274.5736,0,U,69677,999,379,.10460151E-2,.15869E-2,0
STARLINK-38009,2026-145B,2026-07-19T02:43:40.319040,15.75180082,.00019908,97.2841,47.1445,78.8246,281.3243,0,U,69678,999,379,.99482494E-3,.150844E-2,0
